OBJECT_NAME,OBJECT_ID,EPOCH,MEAN_MOTION,ECCENTRICITY,INCLINATION,RA_OF_ASC_NODE,ARG_OF_PERICENTER,MEAN_ANOMALY,EPHEMERIS_TYPE,CLASSIFICATION_TYPE,NORAD_CAT_ID,ELEMENT_SET_NO,REV_AT_EPOCH,BSTAR,MEAN_MOTION_DOT,MEAN_MOTION_DDOT,GROUP
STARLINK-2533,2021-036U,2026-05-03T04:02:20.597280,15.316967,9.133e-05,53.1592,182.079,35.3708,324.7354,0,U,48294,999,27675,0.00011515619,3.21e-05,0.0,Active Satellites
STARLINK-2535,2021-036V,2026-05-02T11:08:57.445728,15.31699445,0.00012706,53.1588,185.5217,69.267,290.8468,0,U,48295,999,27664,0.00010340199,2.845e-05,0.0,Active Satellites
STARLINK-2559,2021-036Y,2026-05-02T10:34:37.965216,15.3194072,0.00014729,53.1612,185.5047,84.4906,275.6263,0,U,48298,999,27664,0.0015998999,0.00049992,0.0,Active Satellites
STARLINK-2557,2021-036Z,2026-05-02T21:19:37.930080,15.31707044,0.0001552,53.1597,183.3648,87.7732,272.3447,0,U,48299,999,27671,2.2833e-05,3.43e-06,0.0,Active Satellites
STARLINK-2538,2021-036AA,2026-05-03T05:27:15.777216,15.31687432,9.605e-05,53.1575,194.6098,87.9286,272.1826,0,U,48300,999,27658,-0.00037943318,-0.00012115,0.0,Active Satellites
STARLINK-2537,2021-036AB,2026-05-02T09:39:54.859392,15.30187377,0.00016011,53.1607,201.3557,85.6582,274.4601,0,U,48301,999,27640,1.3076357e-05,2.8e-07,0.0,Active Satellites
STARLINK-2530,2021-036AD,2026-05-02T21:57:39.164832,15.31712056,0.0001598,53.1609,196.3463,93.2552,266.8633,0,U,48303,999,27652,0.00013929,3.961e-05,0.0,Active Satellites
STARLINK-2524,2021-036AE,2026-05-03T05:30:48.344544,15.29374912,0.0002189,53.1513,205.2386,89.2137,270.9114,0,U,48304,999,27641,9.0379083e-05,2.254e-05,0.0,Active Satellites
STARLINK-2519,2021-036AF,2026-05-03T04:54:48.857760,15.2934438,0.00012801,53.1499,205.827,95.4086,264.7061,0,U,48305,999,27640,5.0532886e-05,1.102e-05,0.0,Active Satellites
STARLINK-2523,2021-036AG,2026-05-03T05:25:04.605600,15.29350618,0.00014688,53.1517,205.2896,85.7851,274.3317,0,U,48306,999,27641,-9.7212507e-05,-3.16e-05,0.0,Active Satellites
STARLINK-2517,2021-036AK,2026-05-03T05:20:01.632768,15.31036397,0.00022379,53.1586,194.8984,83.194,276.9316,0,U,48309,999,27657,2.8155976e-05,4.93e-06,0.0,Active Satellites
STARLINK-2536,2021-036AL,2026-05-02T22:09:21.796416,15.30195351,0.0001366,53.1592,199.2601,88.6903,271.4255,0,U,48310,999,27648,8.4242e-05,2.136e-05,0.0,Active Satellites
STARLINK-2534,2021-036AM,2026-05-02T12:27:12.737952,15.31727415,0.0001174,53.1604,198.4075,79.6217,280.4916,0,U,48311,999,27646,0.00028485,8.492e-05,0.0,Active Satellites
STARLINK-2061,2021-036AN,2026-05-02T11:46:53.965632,15.3172576,0.00013496,53.1585,198.2893,78.3034,281.8119,0,U,48312,999,27646,0.00017546785,5.088e-05,0.0,Active Satellites
STARLINK-2549,2021-036AQ,2026-05-02T22:11:32.428032,15.31709252,0.0001051,53.1615,198.7369,89.6845,270.4277,0,U,48314,999,27648,-6.2767e-05,-2.313e-05,0.0,Active Satellites
STARLINK-2506,2021-036AR,2026-05-03T05:55:29.933472,15.29348977,0.00012394,53.1492,205.0772,70.043,290.0703,0,U,48315,999,27641,-0.00013297399,-4.19e-05,0.0,Active Satellites
STARLINK-2507,2021-036AS,2026-05-02T12:31:21.859392,15.29344899,6.89e-05,53.1506,208.4147,73.3091,286.7985,0,U,48316,999,27630,-3.0274e-05,-1.229e-05,0.0,Active Satellites
STARLINK-2513,2021-036AT,2026-05-02T10:46:27.252192,15.31722941,0.0001243,53.1591,198.2482,73.9727,286.1412,0,U,48317,999,27645,0.00028657619,8.544e-05,0.0,Active Satellites
STARLINK-2509,2021-036AU,2026-05-03T06:07:11.205984,15.30195802,0.00012769,53.1573,208.0897,98.5856,261.5289,0,U,48318,999,27638,0.00031663247,9.029e-05,0.0,Active Satellites
STARLINK-2512,2021-036AV,2026-05-03T06:05:15.833472,15.31707426,0.0001106,53.159,207.457,339.4614,20.6343,0,U,48319,999,27639,-8.6824447e-05,-3.059e-05,0.0,Active Satellites
STARLINK-2029,2021-036AW,2026-05-03T05:12:06.987456,15.31700052,0.00016961,53.1591,207.9382,89.471,270.6486,0,U,48320,999,27638,-0.00011369428,-3.892e-05,0.0,Active Satellites
STARLINK-2457,2021-036AX,2026-05-02T12:31:32.377728,15.3173494,0.0001058,53.1602,210.7962,85.5572,274.555,0,U,48321,999,27628,0.00039674,0.00011979,0.0,Active Satellites
STARLINK-2515,2021-036AZ,2026-05-02T23:15:50.340096,15.31709737,0.00014199,53.1605,208.6857,85.3906,274.7257,0,U,48323,999,27635,0.000112166,3.118e-05,0.0,Active Satellites
STARLINK-2495,2021-036BB,2026-05-02T23:22:34.464864,15.31709083,0.00013672,53.1602,208.7941,87.8138,272.302,0,U,48325,999,27635,3.6718824e-05,7.75e-06,0.0,Active Satellites
STARLINK-2498,2021-036BC,2026-05-02T23:09:39.077568,15.31734445,9.537e-05,53.159,208.7628,123.9537,236.1555,0,U,48326,999,27635,0.00087843402,0.00027022,0.0,Active Satellites
STARLINK-2502,2021-036BD,2026-05-02T23:02:54.799872,15.31720629,0.00012405,53.1621,208.7874,81.3825,278.7317,0,U,48327,999,27635,2.1326918e-05,2.97e-06,0.0,Active Satellites
STARLINK-2504,2021-036BE,2026-05-03T04:58:07.218336,15.31704829,0.0001276,53.1598,207.5256,97.251,262.8637,0,U,48328,999,27638,-5.83922e-06,-5.46e-06,0.0,Active Satellites
STARLINK-2510,2021-036BF,2026-05-03T04:51:53.812224,15.31708088,0.00019562,53.1576,207.5386,98.5521,261.5702,0,U,48329,999,27639,-2.6083018e-05,-1.175e-05,0.0,Active Satellites
