[ {"name": "STARLINK-2533", "line1": "1 48294U 21036U   26123.16829395  .00003210  00000+0  11516-3 0  9998", "line2": "2 48294  53.1592 182.0790 0000913  35.3708 324.7354 15.31696700276753"}, {"name": "STARLINK-2535", "line1": "1 48295U 21036V   26122.46455377  .00002845  00000+0  10340-3 0  9993", "line2": "2 48295  53.1588 185.5217 0001270  69.2670 290.8468 15.31699445276648"}, {"name": "STARLINK-2559", "line1": "1 48298U 21036Y   26122.44071719  .00049992  00000+0  15999-2 0  9996", "line2": "2 48298  53.1612 185.5047 0001472  84.4906 275.6263 15.31940720276644"}, {"name": "STARLINK-2557", "line1": "1 48299U 21036Z   26122.88863345  .00000343  00000+0  22833-4 0  9993", "line2": "2 48299  53.1597 183.3648 0001552  87.7732 272.3447 15.31707044276718"}, {"name": "STARLINK-2538", "line1": "1 48300U 21036AA  26123.22726594 -.00012115  00000+0 -37943-3 0  9998", "line2": "2 48300  53.1575 194.6098 0000960  87.9286 272.1826 15.31687432276581"}, {"name": "STARLINK-2537", "line1": "1 48301U 21036AB  26122.40271828  .00000028  00000+0  13076-4 0  9993", "line2": "2 48301  53.1607 201.3557 0001601  85.6582 274.4601 15.30187377276400"}, {"name": "STARLINK-2530", "line1": "1 48303U 21036AD  26122.91503663  .00003961  00000+0  13929-3 0  9991", "line2": "2 48303  53.1609 196.3463 0001598  93.2552 266.8633 15.31712056276522"}, {"name": "STARLINK-2524", "line1": "1 48304U 21036AE  26123.22972621  .00002254  00000+0  90379-4 0  9990", "line2": "2 48304  53.1513 205.2386 0002189  89.2137 270.9114 15.29374912276412"}, {"name": "STARLINK-2519", "line1": "1 48305U 21036AF  26123.20473215  .00001102  00000+0  50533-4 0  9993", "line2": "2 48305  53.1499 205.8270 0001280  95.4086 264.7061 15.29344380276404"}, {"name": "STARLINK-2523", "line1": "1 48306U 21036AG  26123.22574775 -.00003160  00000+0 -97213-4 0  9993", "line2": "2 48306  53.1517 205.2896 0001468  85.7851 274.3317 15.29350618276417"}, {"name": "STARLINK-2517", "line1": "1 48309U 21036AK  26123.22224112  .00000493  00000+0  28156-4 0  9997", "line2": "2 48309  53.1586 194.8984 0002237  83.1940 276.9316 15.31036397276575"}, {"name": "STARLINK-2536", "line1": "1 48310U 21036AL  26122.92316894  .00002136  00000+0  84242-4 0  9998", "line2": "2 48310  53.1592 199.2601 0001366  88.6903 271.4255 15.30195351276487"}, {"name": "STARLINK-2534", "line1": "1 48311U 21036AM  26122.51889743  .00008492  00000+0  28485-3 0  9999", "line2": "2 48311  53.1604 198.4075 0001174  79.6217 280.4916 15.31727415276468"}, {"name": "STARLINK-2061", "line1": "1 48312U 21036AN  26122.49090238  .00005088  00000+0  17547-3 0  9995", "line2": "2 48312  53.1585 198.2893 0001349  78.3034 281.8119 15.31725760276461"}, {"name": "STARLINK-2549", "line1": "1 48314U 21036AQ  26122.92468088 -.00002313  00000+0 -62767-4 0  9992", "line2": "2 48314  53.1615 198.7369 0001051  89.6845 270.4277 15.31709252276484"}, {"name": "STARLINK-2506", "line1": "1 48315U 21036AR  26123.24687423 -.00004190  00000+0 -13297-3 0  9993", "line2": "2 48315  53.1492 205.0772 0001239  70.0430 290.0703 15.29348977276415"}, {"name": "STARLINK-2507", "line1": "1 48316U 21036AS  26122.52178078 -.00001229  00000+0 -30274-4 0  9990", "line2": "2 48316  53.1506 208.4147 0000689  73.3091 286.7985 15.29344899276303"}, {"name": "STARLINK-2513", "line1": "1 48317U 21036AT  26122.44892653  .00008544  00000+0  28658-3 0  9991", "line2": "2 48317  53.1591 198.2482 0001243  73.9727 286.1412 15.31722941276451"}, {"name": "STARLINK-2509", "line1": "1 48318U 21036AU  26123.25499081  .00009029  00000+0  31663-3 0  9999", "line2": "2 48318  53.1573 208.0897 0001276  98.5856 261.5289 15.30195802276384"}, {"name": "STARLINK-2512", "line1": "1 48319U 21036AV  26123.25365548 -.00003059  00000+0 -86824-4 0  9999", "line2": "2 48319  53.1590 207.4570 0001106 339.4614  20.6343 15.31707426276394"}, {"name": "STARLINK-2029", "line1": "1 48320U 21036AW  26123.21674754 -.00003892  00000+0 -11369-3 0  9995", "line2": "2 48320  53.1591 207.9382 0001696  89.4710 270.6486 15.31700052276388"}, {"name": "STARLINK-2457", "line1": "1 48321U 21036AX  26122.52190252  .00011979  00000+0  39674-3 0  9997", "line2": "2 48321  53.1602 210.7962 0001058  85.5572 274.5550 15.31734940276280"}, {"name": "STARLINK-2515", "line1": "1 48323U 21036AZ  26122.96933264  .00003118  00000+0  11217-3 0  9994", "line2": "2 48323  53.1605 208.6857 0001419  85.3906 274.7257 15.31709737276354"}, {"name": "STARLINK-2495", "line1": "1 48325U 21036BB  26122.97401001  .00000775  00000+0  36719-4 0  9997", "line2": "2 48325  53.1602 208.7941 0001367  87.8138 272.3020 15.31709083276350"}, {"name": "STARLINK-2498", "line1": "1 48326U 21036BC  26122.96503562  .00027022  00000+0  87843-3 0  9999", "line2": "2 48326  53.1590 208.7628 0000953 123.9537 236.1555 15.31734445276355"}, {"name": "STARLINK-2502", "line1": "1 48327U 21036BD  26122.96035648  .00000297  00000+0  21327-4 0  9996", "line2": "2 48327  53.1621 208.7874 0001240  81.3825 278.7317 15.31720629276358"}, {"name": "STARLINK-2504", "line1": "1 48328U 21036BE  26123.20702799 -.00000546  00000+0 -58392-5 0  9995", "line2": "2 48328  53.1598 207.5256 0001276  97.2510 262.8637 15.31704829276385"}, {"name": "STARLINK-2510", "line1": "1 48329U 21036BF  26123.20270616 -.00001175  00000+0 -26083-4 0  9994", "line2": "2 48329  53.1576 207.5386 0001956  98.5521 261.5702 15.31708088276398"}]